[{"OBJECT_NAME":"SL-16 R/B","OBJECT_ID":"1993-059B","EPOCH":"2026-03-07T06:55:59.632896","MEAN_MOTION":14.17232049,"ECCENTRICITY":0.0018657,"INCLINATION":70.9925,"RA_OF_ASC_NODE":16.1882,"ARG_OF_PERICENTER":220.005,"MEAN_ANOMALY":139.97,"EPHEMERIS_TYPE":0,"CLASSIFICATION_TYPE":"U","NORAD_CAT_ID":22803,"ELEMENT_SET_NO":999,"REV_AT_EPOCH":67919,"BSTAR":-4.3581e-5,"MEAN_MOTION_DOT":-1.36e-6,"MEAN_MOTION_DDOT":0},{"OBJECT_NAME":"ARIANE 40 R/B","OBJECT_ID":"1993-061H","EPOCH":"2026-03-07T14:29:16.113408","MEAN_MOTION":14.32859751,"ECCENTRICITY":0.00095774,"INCLINATION":98.492,"RA_OF_ASC_NODE":135.5324,"ARG_OF_PERICENTER":292.0259,"MEAN_ANOMALY":67.9908,"EPHEMERIS_TYPE":0,"CLASSIFICATION_TYPE":"U","NORAD_CAT_ID":22830,"ELEMENT_SET_NO":999,"REV_AT_EPOCH":69380,"BSTAR":0.00011584038,"MEAN_MOTION_DOT":2.73e-6,"MEAN_MOTION_DDOT":0},{"OBJECT_NAME":"COSMOS 2278","OBJECT_ID":"1994-023A","EPOCH":"2026-03-07T14:49:07.826016","MEAN_MOTION":14.14378115,"ECCENTRICITY":0.00078854,"INCLINATION":71.0549,"RA_OF_ASC_NODE":179.4321,"ARG_OF_PERICENTER":17.3987,"MEAN_ANOMALY":342.7404,"EPHEMERIS_TYPE":0,"CLASSIFICATION_TYPE":"U","NORAD_CAT_ID":23087,"ELEMENT_SET_NO":999,"REV_AT_EPOCH":64451,"BSTAR":0.00013459547,"MEAN_MOTION_DOT":2.11e-6,"MEAN_MOTION_DDOT":0},{"OBJECT_NAME":"SL-16 R/B","OBJECT_ID":"1994-023B","EPOCH":"2026-03-07T10:51:59.106816","MEAN_MOTION":14.15012695,"ECCENTRICITY":0.00057094,"INCLINATION":70.9986,"RA_OF_ASC_NODE":75.5853,"ARG_OF_PERICENTER":287.8279,"MEAN_ANOMALY":72.2221,"EPHEMERIS_TYPE":0,"CLASSIFICATION_TYPE":"U","NORAD_CAT_ID":23088,"ELEMENT_SET_NO":999,"REV_AT_EPOCH":64577,"BSTAR":-8.0168333e-5,"MEAN_MOTION_DOT":-2.03e-6,"MEAN_MOTION_DDOT":0},{"OBJECT_NAME":"SL-16 R/B","OBJECT_ID":"1994-074B","EPOCH":"2026-03-07T15:19:58.013760","MEAN_MOTION":14.79405578,"ECCENTRICITY":0.00056322,"INCLINATION":97.7112,"RA_OF_ASC_NODE":97.5396,"ARG_OF_PERICENTER":218.2485,"MEAN_ANOMALY":255.0878,"EPHEMERIS_TYPE":0,"CLASSIFICATION_TYPE":"U","NORAD_CAT_ID":23343,"ELEMENT_SET_NO":999,"REV_AT_EPOCH":68694,"BSTAR":0.00010093736,"MEAN_MOTION_DOT":7.04e-6,"MEAN_MOTION_DDOT":0},{"OBJECT_NAME":"SL-16 R/B","OBJECT_ID":"1994-077B","EPOCH":"2026-03-07T05:21:30.534048","MEAN_MOTION":14.15561309,"ECCENTRICITY":0.0003233,"INCLINATION":70.9853,"RA_OF_ASC_NODE":357.6772,"ARG_OF_PERICENTER":215.5878,"MEAN_ANOMALY":144.5029,"EPHEMERIS_TYPE":0,"CLASSIFICATION_TYPE":"U","NORAD_CAT_ID":23405,"ELEMENT_SET_NO":999,"REV_AT_EPOCH":61588,"BSTAR":-5.2722e-5,"MEAN_MOTION_DOT":-1.51e-6,"MEAN_MOTION_DDOT":0},{"OBJECT_NAME":"ARIANE 40+ R/B","OBJECT_ID":"1995-021B","EPOCH":"2026-03-07T04:11:27.411648","MEAN_MOTION":14.39770077,"ECCENTRICITY":0.00075407,"INCLINATION":98.4502,"RA_OF_ASC_NODE":137.6914,"ARG_OF_PERICENTER":143.1923,"MEAN_ANOMALY":270.9056,"EPHEMERIS_TYPE":0,"CLASSIFICATION_TYPE":"U","NORAD_CAT_ID":23561,"ELEMENT_SET_NO":999,"REV_AT_EPOCH":61888,"BSTAR":0.00012380204,"MEAN_MOTION_DOT":3.45e-6,"MEAN_MOTION_DDOT":0},{"OBJECT_NAME":"SL-16 R/B","OBJECT_ID":"1995-058B","EPOCH":"2026-03-07T14:00:13.520448","MEAN_MOTION":14.15493957,"ECCENTRICITY":0.00109008,"INCLINATION":71.0216,"RA_OF_ASC_NODE":184.6764,"ARG_OF_PERICENTER":129.595,"MEAN_ANOMALY":230.6138,"EPHEMERIS_TYPE":0,"CLASSIFICATION_TYPE":"U","NORAD_CAT_ID":23705,"ELEMENT_SET_NO":999,"REV_AT_EPOCH":56755,"BSTAR":0.00014417006,"MEAN_MOTION_DOT":2.34e-6,"MEAN_MOTION_DDOT":0},{"OBJECT_NAME":"SL-16 R/B","OBJECT_ID":"1996-051B","EPOCH":"2026-03-07T14:47:40.179264","MEAN_MOTION":14.12415067,"ECCENTRICITY":0.00152604,"INCLINATION":70.7601,"RA_OF_ASC_NODE":179.6266,"ARG_OF_PERICENTER":151.1639,"MEAN_ANOMALY":209.0327,"EPHEMERIS_TYPE":0,"CLASSIFICATION_TYPE":"U","NORAD_CAT_ID":24298,"ELEMENT_SET_NO":999,"REV_AT_EPOCH":52135,"BSTAR":9.5366637e-5,"MEAN_MOTION_DOT":1.27e-6,"MEAN_MOTION_DDOT":0},{"OBJECT_NAME":"ORBVIEW 2 (SEASTAR)","OBJECT_ID":"1997-037A","EPOCH":"2026-03-07T11:11:22.549344","MEAN_MOTION":14.35493287,"ECCENTRICITY":0.00031332,"INCLINATION":98.8563,"RA_OF_ASC_NODE":230.7191,"ARG_OF_PERICENTER":76.5194,"MEAN_ANOMALY":283.634,"EPHEMERIS_TYPE":0,"CLASSIFICATION_TYPE":"U","NORAD_CAT_ID":24883,"ELEMENT_SET_NO":999,"REV_AT_EPOCH":50815,"BSTAR":0.00017824376,"MEAN_MOTION_DOT":4.66e-6,"MEAN_MOTION_DDOT":0},{"OBJECT_NAME":"SL-16 R/B","OBJECT_ID":"1998-043G","EPOCH":"2026-03-07T15:02:26.778048","MEAN_MOTION":14.26049175,"ECCENTRICITY":0.0010323,"INCLINATION":98.8251,"RA_OF_ASC_NODE":19.9756,"ARG_OF_PERICENTER":26.2358,"MEAN_ANOMALY":333.9343,"EPHEMERIS_TYPE":0,"CLASSIFICATION_TYPE":"U","NORAD_CAT_ID":25400,"ELEMENT_SET_NO":999,"REV_AT_EPOCH":43869,"BSTAR":6.1875575e-5,"MEAN_MOTION_DOT":1.03e-6,"MEAN_MOTION_DDOT":0},{"OBJECT_NAME":"SL-16 R/B","OBJECT_ID":"1998-045B","EPOCH":"2026-03-07T14:17:27.079584","MEAN_MOTION":14.16189434,"ECCENTRICITY":0.00066146,"INCLINATION":71.0114,"RA_OF_ASC_NODE":185.9774,"ARG_OF_PERICENTER":11.3637,"MEAN_ANOMALY":348.7635,"EPHEMERIS_TYPE":0,"CLASSIFICATION_TYPE":"U","NORAD_CAT_ID":25407,"ELEMENT_SET_NO":999,"REV_AT_EPOCH":42680,"BSTAR":4.6824852e-5,"MEAN_MOTION_DOT":4.5e-7,"MEAN_MOTION_DDOT":0},{"OBJECT_NAME":"ISS (ZARYA)","OBJECT_ID":"1998-067A","EPOCH":"2026-03-07T12:18:20.403360","MEAN_MOTION":15.48507964,"ECCENTRICITY":0.00081324,"INCLINATION":51.6318,"RA_OF_ASC_NODE":83.1189,"ARG_OF_PERICENTER":167.0679,"MEAN_ANOMALY":193.052,"EPHEMERIS_TYPE":0,"CLASSIFICATION_TYPE":"U","NORAD_CAT_ID":25544,"ELEMENT_SET_NO":999,"REV_AT_EPOCH":55599,"BSTAR":0.00027601504,"MEAN_MOTION_DOT":0.00014539,"MEAN_MOTION_DDOT":0},{"OBJECT_NAME":"CZ-4B R/B","OBJECT_ID":"1999-025C","EPOCH":"2026-03-07T15:06:39.222432","MEAN_MOTION":14.18264963,"ECCENTRICITY":0.00368616,"INCLINATION":98.6631,"RA_OF_ASC_NODE":110.9599,"ARG_OF_PERICENTER":352.5842,"MEAN_ANOMALY":119.9842,"EPHEMERIS_TYPE":0,"CLASSIFICATION_TYPE":"U","NORAD_CAT_ID":25732,"ELEMENT_SET_NO":999,"REV_AT_EPOCH":38787,"BSTAR":5.3558774e-5,"MEAN_MOTION_DOT":6.8e-7,"MEAN_MOTION_DDOT":0},{"OBJECT_NAME":"OKEAN-O","OBJECT_ID":"1999-039A","EPOCH":"2026-03-07T14:58:48.374400","MEAN_MOTION":14.80332018,"ECCENTRICITY":0.00012899,"INCLINATION":97.9447,"RA_OF_ASC_NODE":126.5367,"ARG_OF_PERICENTER":69.6425,"MEAN_ANOMALY":290.4926,"EPHEMERIS_TYPE":0,"CLASSIFICATION_TYPE":"U","NORAD_CAT_ID":25860,"ELEMENT_SET_NO":999,"REV_AT_EPOCH":43408,"BSTAR":0.00013573305,"MEAN_MOTION_DOT":9.83e-6,"MEAN_MOTION_DDOT":0},{"OBJECT_NAME":"SL-16 R/B","OBJECT_ID":"1999-039B","EPOCH":"2026-03-07T14:32:36.669408","MEAN_MOTION":14.81728484,"ECCENTRICITY":0.0013456,"INCLINATION":97.997,"RA_OF_ASC_NODE":125.7058,"ARG_OF_PERICENTER":263.5821,"MEAN_ANOMALY":96.3859,"EPHEMERIS_TYPE":0,"CLASSIFICATION_TYPE":"U","NORAD_CAT_ID":25861,"ELEMENT_SET_NO":999,"REV_AT_EPOCH":43655,"BSTAR":0.00011305116,"MEAN_MOTION_DOT":8.38e-6,"MEAN_MOTION_DDOT":0},{"OBJECT_NAME":"DELTA 2 R/B","OBJECT_ID":"1999-041E","EPOCH":"2026-03-07T14:25:40.234368","MEAN_MOTION":14.11831973,"ECCENTRICITY":0.05023344,"INCLINATION":51.7634,"RA_OF_ASC_NODE":309.6227,"ARG_OF_PERICENTER":342.273,"MEAN_ANOMALY":16.1212,"EPHEMERIS_TYPE":0,"CLASSIFICATION_TYPE":"U","NORAD_CAT_ID":25876,"ELEMENT_SET_NO":999,"REV_AT_EPOCH":36273,"BSTAR":0.00028880693,"MEAN_MOTION_DOT":1.559e-5,"MEAN_MOTION_DDOT":0}]
